[{"OBJECT_NAME":"JACK E","OBJECT_ID":"2025-274E","EPOCH":"2026-03-09T18:40:25.511520","MEAN_MOTION":14.9265137,"ECCENTRICITY":0.0012643,"INCLINATION":97.7437,"RA_OF_ASC_NODE":359.4956,"ARG_OF_PERICENTER":334.1516,"MEAN_ANOMALY":25.907,"EPHEMERIS_TYPE":0,"CLASSIFICATION_TYPE":"U","NORAD_CAT_ID":66654,"ELEMENT_SET_NO":999,"REV_AT_EPOCH":1538,"BSTAR":0.00027190729,"MEAN_MOTION_DOT":2.749e-5,"MEAN_MOTION_DDOT":0},{"OBJECT_NAME":"SL-14 R\/B","OBJECT_ID":"1986-018B","EPOCH":"2026-03-09T17:21:36.966528","MEAN_MOTION":14.86680008,"ECCENTRICITY":0.00180747,"INCLINATION":82.5187,"RA_OF_ASC_NODE":182.8859,"ARG_OF_PERICENTER":65.0322,"MEAN_ANOMALY":295.277,"EPHEMERIS_TYPE":0,"CLASSIFICATION_TYPE":"U","NORAD_CAT_ID":16612,"ELEMENT_SET_NO":999,"REV_AT_EPOCH":4335,"BSTAR":7.8697814e-5,"MEAN_MOTION_DOT":7.25e-6,"MEAN_MOTION_DDOT":0}]
